{
  "type": "FeatureCollection",
  "features": [
    {
      "type": "Feature",
      "properties": {
        "norad_id": 19071,
        "name": "OSCAR 32",
        "group": "nnss",
        "lat": 36.704251268754454,
        "lon": 16.18099058656819,
        "alt_km": 1258.0797456453083,
        "timestamp": "2025-12-09T09:46:47.914020+00:00",
        "meta_object_name": "OSCAR 32",
        "meta_object_id": "1988-033B",
        "meta_epoch": "2025-12-08T19:59:46.320864",
        "meta_mean_motion": 13.27953304,
        "meta_eccentricity": 0.01880369,
        "meta_inclination": 90.3221,
        "meta_ra_of_asc_node": 16.4033,
        "meta_arg_of_pericenter": 177.6421,
        "meta_mean_anomaly": 356.5363,
        "meta_ephemeris_type": 0,
        "meta_classification_type": "U",
        "meta_norad_cat_id": 19071,
        "meta_element_set_no": 999,
        "meta_rev_at_epoch": 82213,
        "meta_bstar": 0.00020453437,
        "meta_mean_motion_dot": 1.1e-06,
        "meta_mean_motion_ddot": 0,
        "tle_line1": "1 19071U 88033B   25342.83317501  .00000110  00000+0  20453-3 0  9992",
        "tle_line2": "2 19071  90.3221  16.4033 0188036 177.6421 356.5363 13.27953304822132"
      },
      "geometry": {
        "type": "Point",
        "coordinates": [
          16.18099058656819,
          36.704251268754454
        ]
      }
    },
    {
      "type": "Feature",
      "properties": {
        "norad_id": 19223,
        "name": "NOVA 2",
        "group": "nnss",
        "lat": -64.85594224433389,
        "lon": 78.24905222378841,
        "alt_km": 1181.0635580843027,
        "timestamp": "2025-12-09T09:46:47.914031+00:00",
        "meta_object_name": "NOVA 2",
        "meta_object_id": "1988-052A",
        "meta_epoch": "2025-12-09T04:58:29.942400",
        "meta_mean_motion": 13.22935312,
        "meta_eccentricity": 0.0030883,
        "meta_inclination": 89.9871,
        "meta_ra_of_asc_node": 78.2768,
        "meta_arg_of_pericenter": 26.4937,
        "meta_mean_anomaly": 36.1047,
        "meta_ephemeris_type": 0,
        "meta_classification_type": "U",
        "meta_norad_cat_id": 19223,
        "meta_element_set_no": 999,
        "meta_rev_at_epoch": 80901,
        "meta_bstar": 0.00020977,
        "meta_mean_motion_dot": 9.7e-07,
        "meta_mean_motion_ddot": 0,
        "tle_line1": "1 19223U 88052A   25343.20729100  .00000097  00000+0  20977-3 0  9991",
        "tle_line2": "2 19223  89.9871  78.2768 0030883  26.4937  36.1047 13.22935312809012"
      },
      "geometry": {
        "type": "Point",
        "coordinates": [
          78.24905222378841,
          -64.85594224433389
        ]
      }
    },
    {
      "type": "Feature",
      "properties": {
        "norad_id": 19419,
        "name": "OSCAR 25",
        "group": "nnss",
        "lat": 44.96056679491297,
        "lon": -159.7318433033515,
        "alt_km": 1131.1006135713596,
        "timestamp": "2025-12-09T09:46:47.914042+00:00",
        "meta_object_name": "OSCAR 25",
        "meta_object_id": "1988-074A",
        "meta_epoch": "2025-12-08T21:27:14.131584",
        "meta_mean_motion": 13.42622264,
        "meta_eccentricity": 0.00943083,
        "meta_inclination": 90.0349,
        "meta_ra_of_asc_node": 20.2315,
        "meta_arg_of_pericenter": 257.0069,
        "meta_mean_anomaly": 277.9723,
        "meta_ephemeris_type": 0,
        "meta_classification_type": "U",
        "meta_norad_cat_id": 19419,
        "meta_element_set_no": 999,
        "meta_rev_at_epoch": 82588,
        "meta_bstar": 0.00023301724,
        "meta_mean_motion_dot": 1.44e-06,
        "meta_mean_motion_ddot": 0,
        "tle_line1": "1 19419U 88074A   25342.89391356  .00000144  00000+0  23302-3 0  9992",
        "tle_line2": "2 19419  90.0349  20.2315 0094308 257.0069 277.9723 13.42622264825887"
      },
      "geometry": {
        "type": "Point",
        "coordinates": [
          -159.7318433033515,
          44.96056679491297
        ]
      }
    },
    {
      "type": "Feature",
      "properties": {
        "norad_id": 19420,
        "name": "OSCAR 31",
        "group": "nnss",
        "lat": 20.83013805976631,
        "lon": 20.568789014133223,
        "alt_km": 1144.9023123252164,
        "timestamp": "2025-12-09T09:46:47.914053+00:00",
        "meta_object_name": "OSCAR 31",
        "meta_object_id": "1988-074B",
        "meta_epoch": "2025-12-08T20:14:32.045280",
        "meta_mean_motion": 13.42583793,
        "meta_eccentricity": 0.00925808,
        "meta_inclination": 90.0367,
        "meta_ra_of_asc_node": 20.5807,
        "meta_arg_of_pericenter": 251.2576,
        "meta_mean_anomaly": 284.1517,
        "meta_ephemeris_type": 0,
        "meta_classification_type": "U",
        "meta_norad_cat_id": 19420,
        "meta_element_set_no": 999,
        "meta_rev_at_epoch": 82598,
        "meta_bstar": 0.00022566756,
        "meta_mean_motion_dot": 1.39e-06,
        "meta_mean_motion_ddot": 0,
        "tle_line1": "1 19420U 88074B   25342.84342645  .00000139  00000+0  22567-3 0  9992",
        "tle_line2": "2 19420  90.0367  20.5807 0092580 251.2576 284.1517 13.42583793825982"
      },
      "geometry": {
        "type": "Point",
        "coordinates": [
          20.568789014133223,
          20.83013805976631
        ]
      }
    }
  ]
}